*******************************************************************************
JPL/HORIZONS                248 Lameia (A885 LA)           2023-Sep-04 11:05:14
Rec #:     248 (+COV) Soln.date: 2023-Aug-22_21:58:55   # obs: 4969 (1885-2023)
 
IAU76/J2000 helio. ecliptic osc. elements (au, days, deg., period=Julian yrs):
 
  EPOCH=  2456901.5 ! 2014-Sep-01.00 (TDB)         Residual RMS= .25719
   EC= .06671630531234261  QR= 2.305848469637518   TP= 2456561.6880801204
   OM= 246.8730012647608   W=  11.27560066094271   IN= 4.058377424690077
   A= 2.470683333227222    MA= 86.24164950370663   ADIST= 2.635518196816925
   PER= 3.88359            N= .253792302           ANGMOM= .026978717
   DAN= 2.30864            DDN= 2.63189            L= 258.1210496
   B= .7928905000000001    MOID= 1.29029           TP= 2013-Sep-26.1880801204
 
Asteroid physical parameters (km, seconds, rotational period in hours):
   GM= n.a.                RAD= 25.06              ROTPER= 11.912
   H= 10.33                G= .150                 B-V= .830
                           ALBEDO= .062            STYP= n.a.

ASTEROID comments: 
1: soln ref.= JPL#120, OCC=0
2: source=ORB
*******************************************************************************


*******************************************************************************
Ephemeris / API_USER Mon Sep  4 11:05:14 2023 Pasadena, USA      / Horizons
*******************************************************************************
Target body name: 248 Lameia (A885 LA)            {source: JPL#120}
Center body name: Solar System Barycenter (0)     {source: DE441}
Center-site name: BODY CENTER
*******************************************************************************
Start time      : A.D. 2023-Aug-12 00:00:00.0000 TDB
Stop  time      : A.D. 2023-Aug-13 00:00:00.0000 TDB
Step-size       : 2880 minutes
*******************************************************************************
Center geodetic : 0.0, 0.0, 0.0                   {E-lon(deg),Lat(deg),Alt(km)}
Center cylindric: 0.0, 0.0, 0.0                   {E-lon(deg),Dxy(km),Dz(km)}
Center radii    : (undefined)
Small perturbers: Yes                             {source: SB441-N16}
Output units    : KM-S
Calendar mode   : Mixed Julian/Gregorian
Output type     : GEOMETRIC cartesian states
Output format   : 2 (position and velocity)
Reference frame : Ecliptic of J2000.0
*******************************************************************************
Initial IAU76/J2000 heliocentric ecliptic osculating elements (au, days, deg.):
  EPOCH=  2456901.5 ! 2014-Sep-01.00 (TDB)         Residual RMS= .25719        
   EC= .06671630531234261  QR= 2.305848469637518   TP= 2456561.6880801204      
   OM= 246.8730012647608   W=  11.27560066094271   IN= 4.058377424690077       
  Equivalent ICRF heliocentric cartesian coordinates (au, au/d):
   X= 2.441550228392880E+00  Y=-3.789926529039919E-01  Z= 1.964731407617990E-02
  VX= 2.240414346543876E-03 VY= 9.887009162056860E-03 VZ= 4.120565980517093E-03
Asteroid physical parameters (km, seconds, rotational period in hours):        
   GM= n.a.                RAD= 25.06              ROTPER= 11.912              
   H= 10.33                G= .150                 B-V= .830                   
                           ALBEDO= .062            STYP= n.a.                  
*******************************************************************************
JDTDB
   X     Y     Z
   VX    VY    VZ
*******************************************************************************
$$SOE
2460168.500000000 = A.D. 2023-Aug-12 00:00:00.0000 TDB 
 X =-1.109631178369321E+07 Y = 3.931449913177248E+08 Z =-1.169689584091067E+07
 VX=-1.768827786877843E+01 VY=-7.840036972881255E-01 VZ=-1.132801416553440E+00
$$EOE
*******************************************************************************
 
TIME

  Barycentric Dynamical Time ("TDB" or T_eph) output was requested. This
continuous coordinate time is equivalent to the relativistic proper time
of a clock at rest in a reference frame co-moving with the solar system
barycenter but outside the system's gravity well. It is the independent
variable in the solar system relativistic equations of motion.

  TDB runs at a uniform rate of one SI second per second and is independent
of irregularities in Earth's rotation.
 
CALENDAR SYSTEM

  Mixed calendar mode was active such that calendar dates after AD 1582-Oct-15
(if any) are in the modern Gregorian system. Dates prior to 1582-Oct-5 (if any)
are in the Julian calendar system, which is automatically extended for dates
prior to its adoption on 45-Jan-1 BC.  The Julian calendar is useful for
matching historical dates. The Gregorian calendar more accurately corresponds
to the Earth's orbital motion and seasons. A "Gregorian-only" calendar mode is
available if such physical events are the primary interest.

REFERENCE FRAME AND COORDINATES

  Ecliptic at the standard reference epoch

    Reference epoch: J2000.0
    X-Y plane: adopted Earth orbital plane at the reference epoch
               Note: IAU76 obliquity of 84381.448 arcseconds wrt ICRF X-Y plane
    X-axis   : ICRF
    Z-axis   : perpendicular to the X-Y plane in the directional (+ or -) sense
               of Earth's north pole at the reference epoch.

  Symbol meaning:

    JDTDB    Julian Day Number, Barycentric Dynamical Time
      X      X-component of position vector (km)
      Y      Y-component of position vector (km)
      Z      Z-component of position vector (km)
      VX     X-component of velocity vector (km/sec)                           
      VY     Y-component of velocity vector (km/sec)                           
      VZ     Z-component of velocity vector (km/sec)                           

ABERRATIONS AND CORRECTIONS

 Geometric state vectors have NO corrections or aberrations applied.

Computations by ...

    Solar System Dynamics Group, Horizons On-Line Ephemeris System
    4800 Oak Grove Drive, Jet Propulsion Laboratory
    Pasadena, CA  91109   USA

    General site: https://ssd.jpl.nasa.gov/
    Mailing list: https://ssd.jpl.nasa.gov/email_list.html
    System news : https://ssd.jpl.nasa.gov/horizons/news.html
    User Guide  : https://ssd.jpl.nasa.gov/horizons/manual.html
    Connect     : browser        https://ssd.jpl.nasa.gov/horizons/app.html#/x
                  API            https://ssd-api.jpl.nasa.gov/doc/horizons.html
                  command-line   telnet ssd.jpl.nasa.gov 6775
                  e-mail/batch   https://ssd.jpl.nasa.gov/ftp/ssd/hrzn_batch.txt
                  scripts        https://ssd.jpl.nasa.gov/ftp/ssd/SCRIPTS
    Author      : Jon.D.Giorgini@jpl.nasa.gov
*******************************************************************************
